DISKSAT B               
1 67220U 25305B   25354.24828476  .00000511  00000+0  51086-4 0  9992
2 67220  45.0108 310.7693 0004681 270.4757  89.5581 15.05702195   312
DISKSAT C               
1 67221U 25305C   25354.31471422  .00001256  00000+0  10191-3 0  9994
2 67221  45.0067 310.4143 0004387 282.7791  77.2594 15.05653670   312
DISKSAT D               
1 67222U 25305D   25354.31483363  .00001252  00000+0  10184-3 0  9990
2 67222  45.0056 310.4150 0004477 287.6101  72.4284 15.05567005   317
ELECTRON KICK STAGE R/B 
1 67223U 25305E   25357.29083347  .00018707  00000+0  18366-3 0  9992
2 67223  44.9877 292.9264 0177490 166.6089 193.9601 15.48545747   794
ELECTRON R/B            
1 67224U 25305F   25352.76890193  .00172783  86369-5  22935-3 0  9995
2 67224  45.0188 318.3021 0262888 280.1207  77.0133 15.64663678    93
TJS-23                  
1 67226U 25306A   25365.06480098  .00000040  00000+0  00000+0 0  9997
2 67226   5.9705 298.3666 0001189 280.4575  79.7143  1.00275521   207
CZ-5 R/B                
1 67227U 25306B   25365.68612126  .00002560  00000+0  76011-3 0  9993
2 67227  16.3623 295.3555 7580766 185.6605 153.7806  1.92295643   237
QPS-SAR-15              
1 67228U 25307A   26001.17271622  .00009330  00000+0  80742-3 0  9997
2 67228  42.0074  63.9206 0009477 333.6302  26.4040 14.97198150  1638
ELECTRON KICK STAGE R/B 
1 67229U 25307B   26001.19504759  .00717368  15923-3  19824-2 0  9993
2 67229  42.0009  57.9169 0215041 314.7203  43.6312 15.64433775  1705
ELECTRON R/B            
1 67230U 25307C   25355.36249005  .00071881  81069-5  20248-3 0  9997
2 67230  41.9820 123.1026 0261408 268.1410  88.9482 15.55087105    19
SPACEMOBILE-006         
1 67232U 25309A   25360.75210442  .00001165  00000+0  72651-4 0  9997
2 67232  53.0002  40.8851 0010477 329.2446  30.7932 15.17699903   405
LVM3 R/B                
1 67233U 25309B   25360.74928094  .00001231  00000+0  72627-4 0  9993
2 67233  52.9350  40.7629 0010474 355.6984   4.3917 15.19340101   404
